LUCH 5V (SDCM/PRN 141)  
1 39727U 14023A   22320.76782094 -.00000255  00000+0  00000+0 0  9991
2 39727   1.8608  76.8214 0003301 181.3634 168.8416  1.00271049 31231
GPS BIIF-6  (PRN 06)    
1 39741U 14026A   22320.19518160 -.00000089  00000+0  00000+0 0  9993
2 39741  56.6241  22.3302 0028289 304.4936  55.2921  2.00577858 62284
COSMOS 2500 (755)       
1 40001U 14032A   22321.24653895 -.00000047  00000+0  00000+0 0  9997
2 40001  65.7650 357.8755 0008274 210.9842 164.9411  2.13102347 65586
GPS BIIF-7  (PRN 09)    
1 40105U 14045A   22320.78106532  .00000092  00000+0  00000+0 0  9994
2 40105  54.7273 140.7210 0024297 112.3396 247.9588  2.00557624 59833
GSAT0201 (PRN E18)      
1 40128U 14050A   22321.28492568 -.00000063  00000+0  00000+0 0  9997
2 40128  50.1774 326.1907 1616630 129.5923 245.8712  1.85519560 55990
GSAT0202 (PRN E14)      
1 40129U 14050B   22319.92840255 -.00000066  00000+0  00000+0 0  9999
2 40129  50.2017 325.3096 1613968 130.3540 244.9318  1.85520243 56193
IRNSS-1C                
1 40269U 14061A   22320.83724872 -.00000145  00000+0  00000+0 0  9992
2 40269   3.2881 122.5946 0017865  10.3219 307.4263  1.00273328 29560
GPS BIIF-8  (PRN 03)    
1 40294U 14068A   22320.64936732 -.00000001  00000+0  00000+0 0  9997
2 40294  55.9364  81.9309 0042440  58.7223 301.6854  2.00552114 58969
COSMOS 2501 (702K)      
1 40315U 14075A   22320.33557545 -.00000010  00000+0  00000+0 0  9996
2 40315  63.6691 235.8552 0018154 209.9481 355.8616  2.13101296 61969
GPS BIIF-9  (PRN 26)    
1 40534U 15013A   22320.29262840 -.00000026  00000+0  00000+0 0  9995
2 40534  53.6146 258.4031 0073798  21.1092 339.2019  2.00572728 55577
GSAT0203 (PRN E26)      
1 40544U 15017A   22321.13049719 -.00000081  00000+0  00000+0 0  9993
2 40544  56.8399  17.2048 0004704 243.9781 116.0315  1.70476352 47564
GSAT0204 (PRN E22)      
1 40545U 15017B   22320.21044672 -.00000084  00000+0  00000+0 0  9998
2 40545  56.8457  17.2429 0004663 232.0548 127.9604  1.70475397  9936
IRNSS-1D                
1 40547U 15018A   22320.77122036 -.00000288  00000+0  00000+0 0  9999
2 40547  28.6629 262.5893 0017789 182.3508   0.3280  1.00274623 27871
BEIDOU 17 (C31)         
1 40549U 15019A   22321.48020824 -.00000150  00000+0  00000+0 0  9991
2 40549  51.6210 310.9731 0038091 200.2575 172.9027  1.00263786 27971
GPS BIIF-10 (PRN 08)    
1 40730U 15033A   22320.45042607 -.00000040  00000+0  00000+0 0  9996
2 40730  55.0849 320.5478 0077631   7.8230 352.3205  2.00570341 53741
BEIDOU 18 (C57)         
1 40748U 15037A   22321.23965770 -.00000066  00000+0  00000+0 0  9999
2 40748  55.8072 346.5993 0002063 322.9420  37.5572  1.86233270 49761
BEIDOU 19 (C58)         
1 40749U 15037B   22320.61493449 -.00000069  00000+0  00000+0 0  9993
2 40749  55.8113 346.6108 0005181 294.2976 141.4704  1.86232887 49741
GSAT0205 (PRN E24)      
1 40889U 15045A   22321.15119557 -.00000014  00000+0  00000+0 0  9992
2 40889  55.5300 257.7458 0005157   4.4506 355.5563  1.70472961 44719
GSAT0206 (PRN E30)      
1 40890U 15045B   22319.61218317 -.00000014  00000+0  00000+0 0  9996
2 40890  55.5300 257.7841 0003675 350.3883   9.6087  1.70473018 44713
BEIDOU 20 (C18)         
1 40938U 15053A   22321.34173299 -.00000133  00000+0  00000+0 0  9992
2 40938  51.2679 274.1139 0044931 199.9143 159.8377  1.00258485 26236
GPS BIIF-11 (PRN 10)    
1 41019U 15062A   22320.50191543 -.00000001  00000+0  00000+0 0  9996
2 41019  55.9233  81.7824 0083269 218.2418 141.1600  2.00562522 51584
GSAT-15 (GAGAN/PRN 139) 
1 41028U 15065A   22321.12627962 -.00000244  00000+0  00000+0 0  9996
2 41028   0.0092 103.7282 0002273 106.4754 344.9584  1.00271203 25743
GSAT0209 (PRN E09)      
1 41174U 15079A   22320.95893259  .00000089  00000+0  00000+0 0  9993
2 41174  55.1991 137.2094 0001787 344.0319  15.9968  1.70474546 43050
GSAT0208 (PRN E08)      
1 41175U 15079B   22321.17843744  .00000090  00000+0  00000+0 0  9995
2 41175  55.1983 137.2020 0001356   2.9151 357.1207  1.70474479 43059
IRNSS-1E                
1 41241U 16003A   22320.77113319 -.00000271  00000+0  00000+0 0  9992
2 41241  30.3207  82.2566 0022225 180.2564 182.6594  1.00268001 24961
GPS BIIF-12 (PRN 32)    
1 41328U 16007A   22319.09333116  .00000071  00000+0  00000+0 0  9991
2 41328  54.9399 141.4961 0063843 229.6588 129.8194  2.00563835 49569
COSMOS 2514 (751)       
1 41330U 16008A   22320.51649666 -.00000052  00000+0  00000+0 0  9994
2 41330  65.5642 357.5534 0012191 218.8784 141.0971  2.13102807 52739
IRNSS-1F                
1 41384U 16015A   22321.18581325  .00000177  00000+0  00000+0 0  9999
2 41384   2.3944 145.9689 0020197 176.2380 193.4409  1.00265415 24541
BEIDOU IGSO-6 (C13)     
1 41434U 16021A   22319.71656468 -.00000150  00000+0  00000+0 0  9991
2 41434  58.3255  51.2754 0049476 219.9736 134.1924  1.00295600 24347
IRNSS-1G                
1 41469U 16027A   22320.99004510 -.00000317  00000+0  00000+0 0  9997
2 41469   2.3100 148.4537 0000606 272.4268 121.1674  1.00271555 24056
GSAT0211 (PRN E02)      
1 41549U 16030A   22320.12442441 -.00000013  00000+0  00000+0 0  9997
2 41549  55.6758 257.7189 0004724 329.4246  30.5517  1.70473038 40353
GSAT0210 (PRN E01)      
1 41550U 16030B   22320.41683334 -.00000013  00000+0  00000+0 0  9999
2 41550  55.6752 257.7123 0003911 301.8050  58.1605  1.70474518 40359
COSMOS 2516 (753)       
1 41554U 16032A   22321.10841948 -.00000010  00000+0  00000+0 0  9996
2 41554  63.8942 236.1485 0014342 214.8146 145.1283  2.13106438 50357
BEIDOU-2 G7 (C03)       
1 41586U 16037A   22321.37992444 -.00000338  00000+0  00000+0 0  9996
2 41586   1.7158  69.1813 0007789 351.7300 242.7669  1.00277711 23676
E 117 W B (WAAS/PRN 131)
1 41589U 16038B   22321.13074999  .00000003  00000+0  00000+0 0  9998
2 41589   0.0149 129.0270 0000392   8.8352 208.3921  1.00271758 23588
GSAT0207 (PRN E07)      
1 41859U 16069A   22318.90666373  .00000073  00000+0  00000+0 0  9993
2 41859  54.8604 137.4099 0001562 309.7060  50.3093  1.70474234 37066
GSAT0212 (PRN E03)      
1 41860U 16069B   22320.51988603  .00000085  00000+0  00000+0 0  9991
2 41860  54.8583 137.3626 0001616  31.2675 328.7755  1.70473201 37349
GSAT0213 (PRN E04)      
1 41861U 16069C   22319.71196479  .00000079  00000+0  00000+0 0  9997
2 41861  54.8602 137.3904 0001620 246.0598 113.9543  1.70473308 37196
GSAT0214 (PRN E05)      
1 41862U 16069D   22319.85914365  .00000080  00000+0  00000+0 0  9997
2 41862  54.8595 137.3808 0000753 228.4095 131.6155  1.70473284 37327
SES-15 (WAAS/PRN 133)   
1 42709U 17026A   22321.25811156  .00000075  00000+0  00000+0 0  9997
2 42709   0.0216 350.1204 0000322 259.5112 130.4622  1.00267019 21074
QZS-2 (QZSS/PRN 184)    
1 42738U 17028A   22320.70323170 -.00000203  00000+0  00000+0 0  9998
2 42738  41.5233 262.0138 0763460 269.0855 276.3917  1.00294471 20024
QZS-3 (QZSS/PRN 189)    
1 42917U 17048A   22320.58859669 -.00000335  00000+0  00000+0 0  9998
2 42917   0.0539 183.0392 0002294  72.9206 138.5882  1.00268377 19134
COSMOS 2522 (752)       
1 42939U 17055A   22320.53372045 -.00000010  00000+0  00000+0 0  9993
2 42939  64.1290 236.6065 0007955 246.3928 246.9441  2.13102093 40093
QZS-4 (QZSS/PRN 185)    
1 42965U 17062A   22321.45210358 -.00000309  00000+0  00000+0 0  9991
2 42965  40.7302   0.1577 0750858 270.8178  86.4462  1.00264863 18694
BEIDOU-3 M1 (C19)       
1 43001U 17069A   22320.57509922  .00000060  00000+0  00000+0 0  9993
2 43001  55.6465 106.5874 0007281 289.8781  67.8793  1.86231505 34225
BEIDOU-3 M2 (C20)       
1 43002U 17069B   22320.48146203  .00000059  00000+0  00000+0 0  9991
2 43002  55.6460 106.6262 0005384 323.3898  14.4063  1.86231207 34214
GSAT0215 (PRN E21)      
1 43055U 17079A   22320.34898418 -.00000013  00000+0  00000+0 0  9998
2 43055  55.6516 257.5430 0003244 299.0661  60.9052  1.70473734 30673
GSAT0216 (PRN E25)      
1 43056U 17079B   22320.05451742 -.00000013  00000+0  00000+0 0  9992
2 43056  55.6528 257.5508 0004877 294.2285  65.7247  1.70473817 30687
GSAT0217 (PRN E27)      
1 43057U 17079C   22320.27479443 -.00000013  00000+0  00000+0 0  9995
2 43057  55.6501 257.5443 0004642 305.5052  54.4554  1.70473823 30677
GSAT0218 (PRN E31)      
1 43058U 17079D   22321.08141492 -.00000013  00000+0  00000+0 0  9996
2 43058  55.6497 257.5196 0005164 289.9401  70.0070  1.70473784 30684
BEIDOU-3 M3 (C27)       
1 43107U 18003A   22320.35026376 -.00000073  00000+0  00000+0 0  9997
2 43107  55.2606 347.4795 0003027  57.2936 358.9071  1.86232396 32989
BEIDOU-3 M4 (C28)       
1 43108U 18003B   22321.27357918 -.00000068  00000+0  00000+0 0  9993
2 43108  55.2532 347.4355 0004404 248.2015 110.0653  1.86230813 32996
BEIDOU-3 M5 (C21)       
1 43207U 18018A   22320.10929553  .00000057  00000+0  00000+0 0  9997
2 43207  55.6046 106.7121 0003662   8.8072 351.1919  1.86231456 32363
BEIDOU-3 M6 (C22)       
1 43208U 18018B   22320.71292785  .00000061  00000+0  00000+0 0  9990
2 43208  55.6049 106.6963 0005051 306.3913  53.5559  1.86231504 32372
BEIDOU-3 M7 (C29)       
1 43245U 18029A   22321.45156938 -.00000065  00000+0  00000+0 0  9999
2 43245  55.1671 345.1994 0001559 252.6757  92.4500  1.86232558 31536
BEIDOU-3 M8 (C30)       
1 43246U 18029B   22321.54299985 -.00000064  00000+0  10000-3 0  9994
2 43246  55.1660 345.2260 0003398 339.7726 113.3156  1.86232781 31536
IRNSS-1I                
1 43286U 18035A   22319.46858786  .00000118  00000+0  00000+0 0  9997
2 43286  29.4083  94.9057 0021324 178.8424   4.5831  1.00277110 16930
COSMOS 2527 (756)       
1 43508U 18053A   22320.31543868  .00000089  00000+0  00000+0 0  9999
2 43508  65.0055 117.7457 0007500 212.1261 145.7848  2.13102445 34378
BEIDOU IGSO-7 (C16)     
1 43539U 18057A   22320.45595433 -.00000074  00000+0  00000+0 0  9992
2 43539  55.0884 174.3862 0051282 225.9550 293.3013  1.00263911 16037
GSAT0221 (PRN E15)      
1 43564U 18060A   22318.63379551 -.00000089  00000+0  00000+0 0  9998
2 43564  57.2206  17.1267 0005011 263.9340  96.0665  1.70476159 26824
